{
    "links": {
        "self": "http://www.neowsapp.com/rest/v1/neo/3760884?api_key=iIulBulltgU6a56xZRHN4H3l9WmuAYTsLGpBGhQ2"
    },
    "id": "3760884",
    "neo_reference_id": "3760884",
    "name": "(2016 TH55)",
    "designation": "2016 TH55",
    "nasa_jpl_url": "http://ssd.jpl.nasa.gov/sbdb.cgi?sstr=3760884",
    "absolute_magnitude_h": 20.9,
    "estimated_diameter": {
        "kilometers": {
            "estimated_diameter_min": 0.1756123185,
            "estimated_diameter_max": 0.3926810818
        },
        "meters": {
            "estimated_diameter_min": 175.6123184804,
            "estimated_diameter_max": 392.6810818086
        },
        "miles": {
            "estimated_diameter_min": 0.1091204019,
            "estimated_diameter_max": 0.2440006365
        },
        "feet": {
            "estimated_diameter_min": 576.1559189633,
            "estimated_diameter_max": 1288.3238004408
        }
    },
    "is_potentially_hazardous_asteroid": true,
    "close_approach_data": [
        {
            "close_approach_date": "2016-10-20",
            "close_approach_date_full": "2016-Oct-20 09:51",
            "epoch_date_close_approach": 1476957060000,
            "relative_velocity": {
                "kilometers_per_second": "29.5023756815",
                "kilometers_per_hour": "106208.5524533777",
                "miles_per_hour": "65993.8641619335"
            },
            "miss_distance": {
                "astronomical": "0.067951853",
                "lunar": "26.433270817",
                "kilometers": "10165452.47135311",
                "miles": "6316519.264808518"
            },
            "orbiting_body": "Earth"
        }
    ],
    "orbital_data": {
        "orbit_id": "12",
        "orbit_determination_date": "2017-04-06 08:23:06",
        "first_observation_date": "2016-10-10",
        "last_observation_date": "2016-10-21",
        "data_arc_in_days": 11,
        "observations_used": 114,
        "orbit_uncertainty": "9",
        "minimum_orbit_intersection": ".0453622",
        "jupiter_tisserand_invariant": "3.839",
        "epoch_osculation": "2457674.5",
        "eccentricity": ".6738422467925851",
        "semi_major_axis": "1.623643542807115",
        "inclination": "39.84120324113636",
        "ascending_node_longitude": "206.8515231372477",
        "orbital_period": "755.6739676918797",
        "perihelion_distance": ".5295639299316958",
        "perihelion_argument": "284.593511547428",
        "aphelion_distance": "2.717723155682534",
        "perihelion_time": "2457732.215320809922",
        "mean_anomaly": "332.5046562672597",
        "mean_motion": ".4763959265390326",
        "equinox": "J2000",
        "orbit_class": {
            "orbit_class_type": "APO",
            "orbit_class_description": "Near-Earth asteroid orbits which cross the Earth’s orbit similar to that of 1862 Apollo",
            "orbit_class_range": "a (semi-major axis) > 1.0 AU; q (perihelion) < 1.017 AU"
        }
    },
    "is_sentry_object": false
}